{"type": "FeatureCollection", "features": [ {"type": "Feature", "properties": {"norad_id": 34432, "name": "COSMOS 2251 DEB", "group": "cosmos-2251-debris", "lat": 51.062575409756604, "lon": -110.26347168958698, "alt_km": 786.4705025250869, "timestamp": "2025-12-19T06:59:44.301040+00:00", "meta": {"OBJECT_NAME": "COSMOS 2251 DEB", "OBJECT_ID": "1993-036RZ", "EPOCH": "2025-12-18T17:25:12.830880", "MEAN_MOTION": 14.02932815, "ECCENTRICITY": 0.01819996, "INCLINATION": 73.8292, "RA_OF_ASC_NODE": 91.7785, "ARG_OF_PERICENTER": 173.539, "MEAN_ANOMALY": 338.1006, "EPHEMERIS_TYPE": 0, "CLASSIFICATION_TYPE": "U", "NORAD_CAT_ID": 34432, "ELEMENT_SET_NO": 999, "REV_AT_EPOCH": 85768, "BSTAR": 0.00085279977, "MEAN_MOTION_DOT": 1.506e-05, "MEAN_MOTION_DDOT": 0}, "tle": {"line1": "1 34432U 93036RZ  25352.72584295  .00001506  00000+0  85280-3 0  9993", "line2": "2 34432  73.8292  91.7785 0181999 173.5390 338.1006 14.02932815857681"}}, "geometry": {"type": "Point", "coordinates": [-110.26347168958698, 51.062575409756604]}}, {"type": "Feature", "properties": {"norad_id": 34433, "name": "COSMOS 2251 DEB", "group": "cosmos-2251-debris", "lat": 26.135883943264968, "lon": 151.42353897555893, "alt_km": 879.5879630383633, "timestamp": "2025-12-19T06:59:44.301050+00:00", "meta": {"OBJECT_NAME": "COSMOS 2251 DEB", "OBJECT_ID": "1993-036SA", "EPOCH": "2025-12-18T20:40:14.996352", "MEAN_MOTION": 14.12878633, "ECCENTRICITY": 0.01526068, "INCLINATION": 74.0098, "RA_OF_ASC_NODE": 144.0971, "ARG_OF_PERICENTER": 280.8787, "MEAN_ANOMALY": 77.5213, "EPHEMERIS_TYPE": 0, "CLASSIFICATION_TYPE": "U", "NORAD_CAT_ID": 34433, "ELEMENT_SET_NO": 999, "REV_AT_EPOCH": 86036, "BSTAR": 0.00085885838, "MEAN_MOTION_DOT": 1.759e-05, "MEAN_MOTION_DDOT": 0}, "tle": {"line1": "1 34433U 93036SA  25352.86128468  .00001759  00000+0  85886-3 0  9997", "line2": "2 34433  74.0098 144.0971 0152606 280.8787  77.5213 14.12878633860364"}}, "geometry": {"type": "Point", "coordinates": [151.42353897555893, 26.135883943264968]}}, {"type": "Feature", "properties": {"norad_id": 34434, "name": "COSMOS 2251 DEB", "group": "cosmos-2251-debris", "lat": 74.01267544425151, "lon": 93.17753294947099, "alt_km": 774.0851161576029, "timestamp": "2025-12-19T06:59:44.301061+00:00", "meta": {"OBJECT_NAME": "COSMOS 2251 DEB", "OBJECT_ID": "1993-036SB", "EPOCH": "2025-12-18T20:31:30.487872", "MEAN_MOTION": 13.89845952, "ECCENTRICITY": 0.02740581, "INCLINATION": 74.0627, "RA_OF_ASC_NODE": 359.7246, "ARG_OF_PERICENTER": 135.5717, "MEAN_ANOMALY": 295.697, "EPHEMERIS_TYPE": 0, "CLASSIFICATION_TYPE": "U", "NORAD_CAT_ID": 34434, "ELEMENT_SET_NO": 999, "REV_AT_EPOCH": 84051, "BSTAR": 0.0016988637, "MEAN_MOTION_DOT": 2.806e-05, "MEAN_MOTION_DDOT": 0}, "tle": {"line1": "1 34434U 93036SB  25352.85521398  .00002806  00000+0  16989-2 0  9997", "line2": "2 34434  74.0627 359.7246 0274058 135.5717 295.6970 13.89845952840517"}}, "geometry": {"type": "Point", "coordinates": [93.17753294947099, 74.01267544425151]}}, {"type": "Feature", "properties": {"norad_id": 34446, "name": "COSMOS 2251 DEB", "group": "cosmos-2251-debris", "lat": -59.00090699221246, "lon": -106.56447457032527, "alt_km": 717.1386799573074, "timestamp": "2025-12-19T06:59:44.301071+00:00", "meta": {"OBJECT_NAME": "COSMOS 2251 DEB", "OBJECT_ID": "1993-036SP", "EPOCH": "2025-12-18T19:56:26.470752", "MEAN_MOTION": 14.49359639, "ECCENTRICITY": 0.00508553, "INCLINATION": 74.0419, "RA_OF_ASC_NODE": 45.8591, "ARG_OF_PERICENTER": 182.462, "MEAN_ANOMALY": 177.6298, "EPHEMERIS_TYPE": 0, "CLASSIFICATION_TYPE": "U", "NORAD_CAT_ID": 34446, "ELEMENT_SET_NO": 999, "REV_AT_EPOCH": 88782, "BSTAR": 9.725259e-05, "MEAN_MOTION_DOT": 3.49e-06, "MEAN_MOTION_DDOT": 0}, "tle": {"line1": "1 34446U 93036SP  25352.83086193  .00000349  00000+0  97253-4 0  9992", "line2": "2 34446  74.0419  45.8591 0050855 182.4620 177.6298 14.49359639887822"}}, "geometry": {"type": "Point", "coordinates": [-106.56447457032527, -59.00090699221246]}}, {"type": "Feature", "properties": {"norad_id": 34449, "name": "COSMOS 2251 DEB", "group": "cosmos-2251-debris", "lat": 25.575225402714533, "lon": 65.21799176117788, "alt_km": 574.8965663759418, "timestamp": "2025-12-19T06:59:44.301081+00:00", "meta": {"OBJECT_NAME": "COSMOS 2251 DEB", "OBJECT_ID": "1993-036SS", "EPOCH": "2025-12-18T05:26:44.166912", "MEAN_MOTION": 14.95183894, "ECCENTRICITY": 0.00227497, "INCLINATION": 74.0329, "RA_OF_ASC_NODE": 59.489, "ARG_OF_PERICENTER": 98.5839, "MEAN_ANOMALY": 320.4746, "EPHEMERIS_TYPE": 0, "CLASSIFICATION_TYPE": "U", "NORAD_CAT_ID": 34449, "ELEMENT_SET_NO": 999, "REV_AT_EPOCH": 88775, "BSTAR": 0.0022027298, "MEAN_MOTION_DOT": 0.00024375, "MEAN_MOTION_DDOT": 0}, "tle": {"line1": "1 34449U 93036SS  25352.22690008  .00024375  00000+0  22027-2 0  9994", "line2": "2 34449  74.0329  59.4890 0022749  98.5839 320.4746 14.95183894887755"}}, "geometry": {"type": "Point", "coordinates": [65.21799176117788, 25.575225402714533]}}, {"type": "Feature", "properties": {"norad_id": 34451, "name": "COSMOS 2251 DEB", "group": "cosmos-2251-debris", "lat": 13.552228880488896, "lon": 78.60383533017843, "alt_km": 576.2507497615279, "timestamp": "2025-12-19T06:59:44.301091+00:00", "meta": {"OBJECT_NAME": "COSMOS 2251 DEB", "OBJECT_ID": "1993-036SU", "EPOCH": "2025-12-18T08:27:43.574688", "MEAN_MOTION": 14.95892604, "ECCENTRICITY": 0.00238753, "INCLINATION": 74.0467, "RA_OF_ASC_NODE": 76.544, "ARG_OF_PERICENTER": 92.6871, "MEAN_ANOMALY": 267.7047, "EPHEMERIS_TYPE": 0, "CLASSIFICATION_TYPE": "U", "NORAD_CAT_ID": 34451, "ELEMENT_SET_NO": 999, "REV_AT_EPOCH": 88719, "BSTAR": 0.0022229061, "MEAN_MOTION_DOT": 0.00025065, "MEAN_MOTION_DDOT": 0}, "tle": {"line1": "1 34451U 93036SU  25352.35258767  .00025065  00000+0  22229-2 0  9994", "line2": "2 34451  74.0467  76.5440 0023875  92.6871 267.7047 14.95892604887195"}}, "geometry": {"type": "Point", "coordinates": [78.60383533017843, 13.552228880488896]}}, {"type": "Feature", "properties": {"norad_id": 34452, "name": "COSMOS 2251 DEB", "group": "cosmos-2251-debris", "lat": 55.685024059241634, "lon": -35.54511129270719, "alt_km": 549.5495126365086, "timestamp": "2025-12-19T06:59:44.301101+00:00", "meta": {"OBJECT_NAME": "COSMOS 2251 DEB", "OBJECT_ID": "1993-036SV", "EPOCH": "2025-12-18T23:05:13.280928", "MEAN_MOTION": 15.11837942, "ECCENTRICITY": 0.00652799, "INCLINATION": 74.0324, "RA_OF_ASC_NODE": 169.9406, "ARG_OF_PERICENTER": 244.9007, "MEAN_ANOMALY": 243.7353, "EPHEMERIS_TYPE": 0, "CLASSIFICATION_TYPE": "U", "NORAD_CAT_ID": 34452, "ELEMENT_SET_NO": 999, "REV_AT_EPOCH": 90756, "BSTAR": 0.00064720585, "MEAN_MOTION_DOT": 0.00011622, "MEAN_MOTION_DDOT": 0}, "tle": {"line1": "1 34452U 93036SV  25352.96195927  .00011622  00000+0  64721-3 0  9998", "line2": "2 34452  74.0324 169.9406 0065279 244.9007 243.7353 15.11837942907565"}}, "geometry": {"type": "Point", "coordinates": [-35.54511129270719, 55.685024059241634]}}, {"type": "Feature", "properties": {"norad_id": 34454, "name": "COSMOS 2251 DEB", "group": "cosmos-2251-debris", "lat": -52.85581062309055, "lon": 107.73931898481437, "alt_km": 769.3330579987678, "timestamp": "2025-12-19T06:59:44.301111+00:00", "meta": {"OBJECT_NAME": "COSMOS 2251 DEB", "OBJECT_ID": "1993-036SX", "EPOCH": "2025-12-18T21:33:21.969216", "MEAN_MOTION": 14.38818379, "ECCENTRICITY": 0.00357837, "INCLINATION": 74.0588, "RA_OF_ASC_NODE": 266.2958, "ARG_OF_PERICENTER": 327.6404, "MEAN_ANOMALY": 32.2555, "EPHEMERIS_TYPE": 0, "CLASSIFICATION_TYPE": "U", "NORAD_CAT_ID": 34454, "ELEMENT_SET_NO": 999, "REV_AT_EPOCH": 88156, "BSTAR": 0.00018946663, "MEAN_MOTION_DOT": 5.61e-06, "MEAN_MOTION_DDOT": 0}, "tle": {"line1": "1 34454U 93036SX  25352.89817094  .00000561  00000+0  18947-3 0  9997", "line2": "2 34454  74.0588 266.2958 0035783 327.6404  32.2555 14.38818379881566"}}, "geometry": {"type": "Point", "coordinates": [107.73931898481437, -52.85581062309055]}}, {"type": "Feature", "properties": {"norad_id": 34459, "name": "COSMOS 2251 DEB", "group": "cosmos-2251-debris", "lat": 50.97266894472937, "lon": -96.6564873086939, "alt_km": 915.6431114876132, "timestamp": "2025-12-19T06:59:44.301124+00:00", "meta": {"OBJECT_NAME": "COSMOS 2251 DEB", "OBJECT_ID": "1993-036TC", "EPOCH": "2025-12-18T18:44:29.314176", "MEAN_MOTION": 14.00509346, "ECCENTRICITY": 0.01921117, "INCLINATION": 74.0788, "RA_OF_ASC_NODE": 243.6074, "ARG_OF_PERICENTER": 312.0321, "MEAN_ANOMALY": 46.4595, "EPHEMERIS_TYPE": 0, "CLASSIFICATION_TYPE": "U", "NORAD_CAT_ID": 34459, "ELEMENT_SET_NO": 999, "REV_AT_EPOCH": 85796, "BSTAR": 0.00029265822, "MEAN_MOTION_DOT": 4.85e-06, "MEAN_MOTION_DDOT": 0}, "tle": {"line1": "1 34459U 93036TC  25352.78089484  .00000485  00000+0  29266-3 0  9995", "line2": "2 34459  74.0788 243.6074 0192111 312.0321  46.4595 14.00509346857964"}}, "geometry": {"type": "Point", "coordinates": [-96.6564873086939, 50.97266894472937]}}, {"type": "Feature", "properties": {"norad_id": 34464, "name": "COSMOS 2251 DEB", "group": "cosmos-2251-debris", "lat": -51.92055153095151, "lon": 42.84338794272187, "alt_km": 483.29805036139896, "timestamp": "2025-12-19T06:59:44.301134+00:00", "meta": {"OBJECT_NAME": "COSMOS 2251 DEB", "OBJECT_ID": "1993-036TH", "EPOCH": "2025-12-18T15:31:16.660704", "MEAN_MOTION": 15.27880688, "ECCENTRICITY": 0.00151141, "INCLINATION": 73.9899, "RA_OF_ASC_NODE": 65.7127, "ARG_OF_PERICENTER": 246.9934, "MEAN_ANOMALY": 112.9673, "EPHEMERIS_TYPE": 0, "CLASSIFICATION_TYPE": "U", "NORAD_CAT_ID": 34464, "ELEMENT_SET_NO": 999, "REV_AT_EPOCH": 89930, "BSTAR": 0.0020725497, "MEAN_MOTION_DOT": 0.00057007, "MEAN_MOTION_DDOT": 0}, "tle": {"line1": "1 34464U 93036TH  25352.64672061  .00057007  00000+0  20725-2 0  9997", "line2": "2 34464  73.9899  65.7127 0015114 246.9934 112.9673 15.27880688899306"}}, "geometry": {"type": "Point", "coordinates": [42.84338794272187, -51.92055153095151]}}]}